CCSDS_OMM_VERS = 2.0
CREATION_DATE  = 
ORIGINATOR     = 

OBJECT_NAME    = ERS-1
OBJECT_ID      = 1991-050A
CENTER_NAME    = EARTH
REF_FRAME      = TEME
TIME_SYSTEM    = UTC
MEAN_ELEMENT_THEORY = SGP/SGP4

EPOCH          = 2026-03-11T00:25:58.778688
MEAN_MOTION    = 14.39450493
ECCENTRICITY   = .00316915
INCLINATION    = 98.7880
RA_OF_ASC_NODE = 88.2860
ARG_OF_PERICENTER = 196.4716
MEAN_ANOMALY   = 163.5444

EPHEMERIS_TYPE = 0
CLASSIFICATION_TYPE = U
NORAD_CAT_ID   = 21574
ELEMENT_SET_NO = 999
REV_AT_EPOCH   = 81592
BSTAR          = .13440901E-3
MEAN_MOTION_DOT = .374E-5
MEAN_MOTION_DDOT = 0

CCSDS_OMM_VERS = 2.0
CREATION_DATE  = 
ORIGINATOR     = 

OBJECT_NAME    = ARIANE 40 R/B
OBJECT_ID      = 1991-050F
CENTER_NAME    = EARTH
REF_FRAME      = TEME
TIME_SYSTEM    = UTC
MEAN_ELEMENT_THEORY = SGP/SGP4

EPOCH          = 2026-03-11T01:34:48.012672
MEAN_MOTION    = 14.42894673
ECCENTRICITY   = .0004269
INCLINATION    = 98.2009
RA_OF_ASC_NODE = 122.2505
ARG_OF_PERICENTER = 78.2116
MEAN_ANOMALY   = 281.9554

EPHEMERIS_TYPE = 0
CLASSIFICATION_TYPE = U
NORAD_CAT_ID   = 21610
ELEMENT_SET_NO = 999
REV_AT_EPOCH   = 81919
BSTAR          = .11509794E-3
MEAN_MOTION_DOT = .343E-5
MEAN_MOTION_DDOT = 0

CCSDS_OMM_VERS = 2.0
CREATION_DATE  = 
ORIGINATOR     = 

OBJECT_NAME    = INTERCOSMOS 25
OBJECT_ID      = 1991-086A
CENTER_NAME    = EARTH
REF_FRAME      = TEME
TIME_SYSTEM    = UTC
MEAN_ELEMENT_THEORY = SGP/SGP4

EPOCH          = 2026-03-11T03:26:55.397472
MEAN_MOTION    = 12.12003930
ECCENTRICITY   = .14869542
INCLINATION    = 82.6047
RA_OF_ASC_NODE = 309.1297
ARG_OF_PERICENTER = 113.8002
MEAN_ANOMALY   = 262.5874

EPHEMERIS_TYPE = 0
CLASSIFICATION_TYPE = U
NORAD_CAT_ID   = 21819
ELEMENT_SET_NO = 999
REV_AT_EPOCH   = 49686
BSTAR          = .34317869E-3
MEAN_MOTION_DOT = .1787E-4
MEAN_MOTION_DDOT = 0

CCSDS_OMM_VERS = 2.0
CREATION_DATE  = 
ORIGINATOR     = 

OBJECT_NAME    = SL-8 R/B
OBJECT_ID      = 1992-008B
CENTER_NAME    = EARTH
REF_FRAME      = TEME
TIME_SYSTEM    = UTC
MEAN_ELEMENT_THEORY = SGP/SGP4

EPOCH          = 2026-03-11T06:31:02.275968
MEAN_MOTION    = 13.75969828
ECCENTRICITY   = .00355994
INCLINATION    = 82.9222
RA_OF_ASC_NODE = 266.6013
ARG_OF_PERICENTER = 129.0547
MEAN_ANOMALY   = 44.3989

EPHEMERIS_TYPE = 0
CLASSIFICATION_TYPE = U
NORAD_CAT_ID   = 21876
ELEMENT_SET_NO = 999
REV_AT_EPOCH   = 70963
BSTAR          = -.522137E-6
MEAN_MOTION_DOT = .15E-6
MEAN_MOTION_DDOT = 0

CCSDS_OMM_VERS = 2.0
CREATION_DATE  = 
ORIGINATOR     = 

OBJECT_NAME    = SL-8 R/B
OBJECT_ID      = 1992-020B
CENTER_NAME    = EARTH
REF_FRAME      = TEME
TIME_SYSTEM    = UTC
MEAN_ELEMENT_THEORY = SGP/SGP4

EPOCH          = 2026-03-11T07:00:24.326208
MEAN_MOTION    = 13.75549719
ECCENTRICITY   = .00276383
INCLINATION    = 82.9334
RA_OF_ASC_NODE = 152.5721
ARG_OF_PERICENTER = 294.1459
MEAN_ANOMALY   = 124.3175

EPHEMERIS_TYPE = 0
CLASSIFICATION_TYPE = U
NORAD_CAT_ID   = 21938
ELEMENT_SET_NO = 999
REV_AT_EPOCH   = 70135
BSTAR          = .55454341E-4
MEAN_MOTION_DOT = .68E-6
MEAN_MOTION_DDOT = 0

CCSDS_OMM_VERS = 2.0
CREATION_DATE  = 
ORIGINATOR     = 

OBJECT_NAME    = USA 81
OBJECT_ID      = 1992-023A
CENTER_NAME    = EARTH
REF_FRAME      = TEME
TIME_SYSTEM    = UTC
MEAN_ELEMENT_THEORY = SGP/SGP4

EPOCH          = 2026-03-11T06:22:22.040832
MEAN_MOTION    = 14.32368535
ECCENTRICITY   = .00024147
INCLINATION    = 85.0082
RA_OF_ASC_NODE = 130.5321
ARG_OF_PERICENTER = 76.6973
MEAN_ANOMALY   = 283.4489

EPHEMERIS_TYPE = 0
CLASSIFICATION_TYPE = U
NORAD_CAT_ID   = 21949
ELEMENT_SET_NO = 999
REV_AT_EPOCH   = 9501
BSTAR          = .60309563E-4
MEAN_MOTION_DOT = .183E-5
MEAN_MOTION_DDOT = 0

CCSDS_OMM_VERS = 2.0
CREATION_DATE  = 
ORIGINATOR     = 

OBJECT_NAME    = COSMOS 2219
OBJECT_ID      = 1992-076A
CENTER_NAME    = EARTH
REF_FRAME      = TEME
TIME_SYSTEM    = UTC
MEAN_ELEMENT_THEORY = SGP/SGP4

EPOCH          = 2026-03-11T06:56:48.581088
MEAN_MOTION    = 14.14093035
ECCENTRICITY   = .00189065
INCLINATION    = 71.0638
RA_OF_ASC_NODE = 14.7233
ARG_OF_PERICENTER = 204.8578
MEAN_ANOMALY   = 155.1636

EPHEMERIS_TYPE = 0
CLASSIFICATION_TYPE = U
NORAD_CAT_ID   = 22219
ELEMENT_SET_NO = 999
REV_AT_EPOCH   = 71860
BSTAR          = .66280158E-4
MEAN_MOTION_DOT = .79E-6
MEAN_MOTION_DDOT = 0

CCSDS_OMM_VERS = 2.0
CREATION_DATE  = 
ORIGINATOR     = 

OBJECT_NAME    = SL-16 R/B
OBJECT_ID      = 1992-076B
CENTER_NAME    = EARTH
REF_FRAME      = TEME
TIME_SYSTEM    = UTC
MEAN_ELEMENT_THEORY = SGP/SGP4

EPOCH          = 2026-03-11T07:29:56.641632
MEAN_MOTION    = 14.16859323
ECCENTRICITY   = .00104568
INCLINATION    = 71.0009
RA_OF_ASC_NODE = 184.9555
ARG_OF_PERICENTER = 93.4655
MEAN_ANOMALY   = 287.3581

EPHEMERIS_TYPE = 0
CLASSIFICATION_TYPE = U
NORAD_CAT_ID   = 22220
ELEMENT_SET_NO = 999
REV_AT_EPOCH   = 72206
BSTAR          = -.60952145E-4
MEAN_MOTION_DOT = -.17E-5
MEAN_MOTION_DDOT = 0

CCSDS_OMM_VERS = 2.0
CREATION_DATE  = 
ORIGINATOR     = 

OBJECT_NAME    = COSMOS 2221
OBJECT_ID      = 1992-080A
CENTER_NAME    = EARTH
REF_FRAME      = TEME
TIME_SYSTEM    = UTC
MEAN_ELEMENT_THEORY = SGP/SGP4

EPOCH          = 2026-03-11T01:00:11.473344
MEAN_MOTION    = 14.96206244
ECCENTRICITY   = .00141713
INCLINATION    = 82.5012
RA_OF_ASC_NODE = 277.7855
ARG_OF_PERICENTER = 182.3730
MEAN_ANOMALY   = 177.7428

EPHEMERIS_TYPE = 0
CLASSIFICATION_TYPE = U
NORAD_CAT_ID   = 22236
ELEMENT_SET_NO = 999
REV_AT_EPOCH   = 78099
BSTAR          = .19891983E-3
MEAN_MOTION_DOT = .2272E-4
MEAN_MOTION_DDOT = 0

CCSDS_OMM_VERS = 2.0
CREATION_DATE  = 
ORIGINATOR     = 

OBJECT_NAME    = SL-16 R/B
OBJECT_ID      = 1992-093B
CENTER_NAME    = EARTH
REF_FRAME      = TEME
TIME_SYSTEM    = UTC
MEAN_ELEMENT_THEORY = SGP/SGP4

EPOCH          = 2026-03-11T05:21:56.677824
MEAN_MOTION    = 14.15447453
ECCENTRICITY   = .00063898
INCLINATION    = 71.0242
RA_OF_ASC_NODE = 1.0459
ARG_OF_PERICENTER = 292.1211
MEAN_ANOMALY   = 67.9233

EPHEMERIS_TYPE = 0
CLASSIFICATION_TYPE = U
NORAD_CAT_ID   = 22285
ELEMENT_SET_NO = 999
REV_AT_EPOCH   = 71337
BSTAR          = -.67911566E-4
MEAN_MOTION_DOT = -.18E-5
MEAN_MOTION_DDOT = 0

CCSDS_OMM_VERS = 2.0
CREATION_DATE  = 
ORIGINATOR     = 

OBJECT_NAME    = COSMOS 2228
OBJECT_ID      = 1992-094A
CENTER_NAME    = EARTH
REF_FRAME      = TEME
TIME_SYSTEM    = UTC
MEAN_ELEMENT_THEORY = SGP/SGP4

EPOCH          = 2026-03-11T06:11:10.861440
MEAN_MOTION    = 14.97199028
ECCENTRICITY   = .00167371
INCLINATION    = 82.5158
RA_OF_ASC_NODE = 235.8087
ARG_OF_PERICENTER = 299.0953
MEAN_ANOMALY   = 60.8593

EPHEMERIS_TYPE = 0
CLASSIFICATION_TYPE = U
NORAD_CAT_ID   = 22286
ELEMENT_SET_NO = 999
REV_AT_EPOCH   = 77629
BSTAR          = .26069014E-3
MEAN_MOTION_DOT = .3048E-4
MEAN_MOTION_DDOT = 0

CCSDS_OMM_VERS = 2.0
CREATION_DATE  = 
ORIGINATOR     = 

OBJECT_NAME    = SL-16 R/B
OBJECT_ID      = 1993-016B
CENTER_NAME    = EARTH
REF_FRAME      = TEME
TIME_SYSTEM    = UTC
MEAN_ELEMENT_THEORY = SGP/SGP4

EPOCH          = 2026-03-10T20:09:43.348320
MEAN_MOTION    = 14.15309060
ECCENTRICITY   = .00118774
INCLINATION    = 71.0075
RA_OF_ASC_NODE = 212.7643
ARG_OF_PERICENTER = 312.5676
MEAN_ANOMALY   = 47.4444

EPHEMERIS_TYPE = 0
CLASSIFICATION_TYPE = U
NORAD_CAT_ID   = 22566
ELEMENT_SET_NO = 999
REV_AT_EPOCH   = 70233
BSTAR          = .57279863E-4
MEAN_MOTION_DOT = .64E-6
MEAN_MOTION_DDOT = 0

